[{"OBJECT_NAME":"STARLINK-35105","OBJECT_ID":"2025-200Z","EPOCH":"2026-03-09T18:14:27.829248","MEAN_MOTION":15.05647467,"ECCENTRICITY":1.624e-5,"INCLINATION":97.6018,"RA_OF_ASC_NODE":139.9027,"ARG_OF_PERICENTER":252.9895,"MEAN_ANOMALY":107.1314,"EPHEMERIS_TYPE":0,"CLASSIFICATION_TYPE":"U","NORAD_CAT_ID":65543,"ELEMENT_SET_NO":999,"REV_AT_EPOCH":2914,"BSTAR":0.0001230669,"MEAN_MOTION_DOT":1.715e-5,"MEAN_MOTION_DDOT":0},{"OBJECT_NAME":"OV1-19 R\/B","OBJECT_ID":"1969-025E","EPOCH":"2026-03-09T09:30:04.454496","MEAN_MOTION":9.69876491,"ECCENTRICITY":0.26115268,"INCLINATION":104.7163,"RA_OF_ASC_NODE":50.231,"ARG_OF_PERICENTER":250.0366,"MEAN_ANOMALY":80.2553,"EPHEMERIS_TYPE":0,"CLASSIFICATION_TYPE":"U","NORAD_CAT_ID":3827,"ELEMENT_SET_NO":999,"REV_AT_EPOCH":99041,"BSTAR":0.00027655294,"MEAN_MOTION_DOT":5.08e-6,"MEAN_MOTION_DDOT":0}]
